start=new Date('2022-02-04T00:00:00.000Z').valueOf();
sats=[{"MEAN_ANOMALY":"242.9575","SITE":"AFETR","FILE":"3291273","OBJECT_TYPE":"PAYLOAD","MEAN_MOTION_DDOT":"0.0000000000000","NORAD_CAT_ID":"44951","ARG_OF_PERICENTER":"117.1714","PERIAPSIS":"535.695","RA_OF_ASC_NODE":"191.5067","LAUNCH_DATE":"2020-01-07","DECAY_DATE":null,"INCLINATION":"53.0022","RCS_SIZE":"LARGE","CENTER_NAME":"EARTH","TLE_LINE2":"2 44951  53.0022 191.5067 0002941 117.1714 242.9575 15.09499987116164","COUNTRY_CODE":"US","MEAN_MOTION_DOT":"0.00009716","ELEMENT_SET_NO":"999","APOAPSIS":"539.763","EPOCH":"2022-02-03T21:22:46.764192","MEAN_MOTION":"15.09499987","TLE_LINE1":"1 44951U 20001AP  22034.89081903  .00009716  00000-0  61649-3 0  9997","REV_AT_EPOCH":"11616","OBJECT_ID":"2020-001AP","ECCENTRICITY":"0.00029410","MEAN_ELEMENT_THEORY":"SGP4","TIME_SYSTEM":"UTC","SEMIMAJOR_AXIS":"6915.864","OBJECT_NAME":"STARLINK-1126","EPHEMERIS_TYPE":"0","GP_ID":"195257816","CLASSIFICATION_TYPE":"U","BSTAR":"0.00061649000000","PERIOD":"95.396","REF_FRAME":"TEME"},{"PERIAPSIS":"546.163","RA_OF_ASC_NODE":"197.3877","NORAD_CAT_ID":"44952","OBJECT_TYPE":"PAYLOAD","MEAN_MOTION_DDOT":"0.0000000000000","ARG_OF_PERICENTER":"68.5958","SITE":"AFETR","FILE":"3291273","MEAN_ANOMALY":"291.5187","TLE_LINE2":"2 44952  53.0530 197.3877 0001462  68.5958 291.5187 15.06412475114811","CENTER_NAME":"EARTH","RCS_SIZE":"LARGE","INCLINATION":"53.0530","DECAY_DATE":null,"LAUNCH_DATE":"2020-01-07","TIME_SYSTEM":"UTC","MEAN_ELEMENT_THEORY":"SGP4","SEMIMAJOR_AXIS":"6925.310","REV_AT_EPOCH":"11481","OBJECT_ID":"2020-001AQ","ECCENTRICITY":"0.00014620","APOAPSIS":"548.188","EPOCH":"2022-02-03T19:28:28.848000","MEAN_MOTION":"15.06412475","TLE_LINE1":"1 44952U 20001AQ  22034.81144500  .00001703  00000-0  13314-3 0  9997","COUNTRY_CODE":"US","ELEMENT_SET_NO":"999","MEAN_MOTION_DOT":"0.00001703","BSTAR":"0.00013314000000","PERIOD":"95.591","REF_FRAME":"TEME","GP_ID":"195258565","CLASSIFICATION_TYPE":"U","EPHEMERIS_TYPE":"0","OBJECT_NAME":"STARLINK-1117"},{"MEAN_MOTION_DDOT":"0.0000000000000","OBJECT_TYPE":"PAYLOAD","NORAD_CAT_ID":"44953","ARG_OF_PERICENTER":"80.5153","RA_OF_ASC_NODE":"197.3083","PERIAPSIS":"545.971","MEAN_ANOMALY":"279.6033","FILE":"3291273","SITE":"AFETR","CENTER_NAME":"EARTH","RCS_SIZE":"LARGE","TLE_LINE2":"2 44953  53.0515 197.3083 0001750  80.5153 279.6033 15.06409952116102","DECAY_DATE":null,"LAUNCH_DATE":"2020-01-07","INCLINATION":"53.0515","OBJECT_ID":"2020-001AR","ECCENTRICITY":"0.00017500","REV_AT_EPOCH":"11610","SEMIMAJOR_AXIS":"6925.318","MEAN_ELEMENT_THEORY":"SGP4","TIME_SYSTEM":"UTC","COUNTRY_CODE":"US","ELEMENT_SET_NO":"999","MEAN_MOTION_DOT":"0.00003958","TLE_LINE1":"1 44953U 20001AR  22034.82892638  .00003958  00000-0  28437-3 0  9997","EPOCH":"2022-02-03T19:53:39.239232","MEAN_MOTION":"15.06409952","APOAPSIS":"548.395","CLASSIFICATION_TYPE":"U","GP_ID":"195258818","REF_FRAME":"TEME","PERIOD":"95.592","BSTAR":"0.00028437000000","OBJECT_NAME":"STARLINK-1124","EPHEMERIS_TYPE":"0"},{"MEAN_ANOMALY":"290.3600","FILE":"3291273","SITE":"AFETR","NORAD_CAT_ID":"44954","OBJECT_TYPE":"PAYLOAD","MEAN_MOTION_DDOT":"0.0000000000000","ARG_OF_PERICENTER":"69.7494","PERIAPSIS":"546.536","RA_OF_ASC_NODE":"177.2406","DECAY_DATE":null,"LAUNCH_DATE":"2020-01-07","INCLINATION":"53.0521","CENTER_NAME":"EARTH","RCS_SIZE":"LARGE","TLE_LINE2":"2 44954  53.0521 177.2406 0000978  69.7494 290.3600 15.06400110115043","ELEMENT_SET_NO":"999","COUNTRY_CODE":"US","MEAN_MOTION_DOT":"0.00001835","EPOCH":"2022-02-03T20:13:36.680160","MEAN_MOTION":"15.06400110","TLE_LINE1":"1 44954U 20001AS  22034.84278565  .00001835  00000-0  14203-3 0  9995","APOAPSIS":"547.891","OBJECT_ID":"2020-001AS","ECCENTRICITY":"0.00009780","REV_AT_EPOCH":"11504","SEMIMAJOR_AXIS":"6925.348","TIME_SYSTEM":"UTC","MEAN_ELEMENT_THEORY":"SGP4","OBJECT_NAME":"STARLINK-1066","EPHEMERIS_TYPE":"0","GP_ID":"195257067","CLASSIFICATION_TYPE":"U","REF_FRAME":"TEME","BSTAR":"0.00014203000000","PERIOD":"95.592"},{"LAUNCH_DATE":"2020-01-07","DECAY_DATE":null,"INCLINATION":"53.0535","CENTER_NAME":"EARTH","RCS_SIZE":"LARGE","TLE_LINE2":"2 44955  53.0535 177.2294 0002155  90.7832 269.3404 15.06402924115046","MEAN_ANOMALY":"269.3404","FILE":"3291273","SITE":"AFETR","OBJECT_TYPE":"PAYLOAD","MEAN_MOTION_DDOT":"0.0000000000000","NORAD_CAT_ID":"44955","ARG_OF_PERICENTER":"90.7832","PERIAPSIS":"545.712","RA_OF_ASC_NODE":"177.2294","OBJECT_NAME":"STARLINK-1069","EPHEMERIS_TYPE":"0","CLASSIFICATION_TYPE":"U","GP_ID":"195257317","REF_FRAME":"TEME","BSTAR":"0.00009837800000","PERIOD":"95.592","ELEMENT_SET_NO":"999","COUNTRY_CODE":"US","MEAN_MOTION_DOT":"0.00001184","EPOCH":"2022-02-03T20:24:11.898144","MEAN_MOTION":"15.06402924","TLE_LINE1":"1 44955U 20001AT  22034.85013771  .00001184  00000-0  98378-4 0  9996","APOAPSIS":"548.697","ECCENTRICITY":"0.00021550","OBJECT_ID":"2020-001AT","REV_AT_EPOCH":"11504","SEMIMAJOR_AXIS":"6925.340","TIME_SYSTEM":"UTC","MEAN_ELEMENT_THEORY":"SGP4"},{"SEMIMAJOR_AXIS":"6925.402","TIME_SYSTEM":"UTC","MEAN_ELEMENT_THEORY":"SGP4","OBJECT_ID":"2020-001AU","ECCENTRICITY":"0.00014080","REV_AT_EPOCH":"11510","TLE_LINE1":"1 44956U 20001AU  22034.84647911  .00008656  00000-0  59958-3 0  9996","MEAN_MOTION":"15.06382614","EPOCH":"2022-02-03T20:18:55.795104","APOAPSIS":"548.242","ELEMENT_SET_NO":"999","COUNTRY_CODE":"US","MEAN_MOTION_DOT":"0.00008656","REF_FRAME":"TEME","PERIOD":"95.593","BSTAR":"0.00059958000000","GP_ID":"195258066","CLASSIFICATION_TYPE":"U","EPHEMERIS_TYPE":"0","OBJECT_NAME":"STARLINK-1070","RA_OF_ASC_NODE":"177.2374","PERIAPSIS":"546.292","ARG_OF_PERICENTER":"91.3166","OBJECT_TYPE":"PAYLOAD","MEAN_MOTION_DDOT":"0.0000000000000","NORAD_CAT_ID":"44956","FILE":"3291273","SITE":"AFETR","MEAN_ANOMALY":"268.7984","TLE_LINE2":"2 44956  53.0534 177.2374 0001408  91.3166 268.7984 15.06382614115108","RCS_SIZE":"LARGE","CENTER_NAME":"EARTH","INCLINATION":"53.0534","DECAY_DATE":null,"LAUNCH_DATE":"2020-01-07"},{"ELEMENT_SET_NO":"999","COUNTRY_CODE":"US","MEAN_MOTION_DOT":"0.00003466","APOAPSIS":"548.273","EPOCH":"2022-02-03T19:20:31.776576","MEAN_MOTION":"15.06386617","TLE_LINE1":"1 44957U 20001AV  22034.80592334  .00003466  00000-0  25154-3 0  9996","REV_AT_EPOCH":"11509","OBJECT_ID":"2020-001AV","ECCENTRICITY":"0.00014710","TIME_SYSTEM":"UTC","MEAN_ELEMENT_THEORY":"SGP4","SEMIMAJOR_AXIS":"6925.390","OBJECT_NAME":"STARLINK-1074","EPHEMERIS_TYPE":"0","CLASSIFICATION_TYPE":"U","GP_ID":"195258319","BSTAR":"0.00025154000000","PERIOD":"95.593","REF_FRAME":"TEME","MEAN_ANOMALY":"263.9648","SITE":"AFETR","FILE":"3291273","NORAD_CAT_ID":"44957","OBJECT_TYPE":"PAYLOAD","MEAN_MOTION_DDOT":"0.0000000000000","ARG_OF_PERICENTER":"96.1509","PERIAPSIS":"546.236","RA_OF_ASC_NODE":"177.4230","LAUNCH_DATE":"2020-01-07","DECAY_DATE":null,"INCLINATION":"53.0544","RCS_SIZE":"LARGE","CENTER_NAME":"EARTH","TLE_LINE2":"2 44957  53.0544 177.4230 0001471  96.1509 263.9648 15.06386617115096"},{"REF_FRAME":"TEME","PERIOD":"95.591","BSTAR":"0.00023081000000","GP_ID":"195257567","CLASSIFICATION_TYPE":"U","EPHEMERIS_TYPE":"0","OBJECT_NAME":"STARLINK-1076","SEMIMAJOR_AXIS":"6925.282","MEAN_ELEMENT_THEORY":"SGP4","TIME_SYSTEM":"UTC","ECCENTRICITY":"0.00013900","OBJECT_ID":"2020-001AX","REV_AT_EPOCH":"11510","TLE_LINE1":"1 44959U 20001AX  22034.88700330  .00003160  00000-0  23081-3 0  9991","MEAN_MOTION":"15.06421726","EPOCH":"2022-02-03T21:17:17.085120","APOAPSIS":"548.110","COUNTRY_CODE":"US","MEAN_MOTION_DOT":"0.00003160","ELEMENT_SET_NO":"999","TLE_LINE2":"2 44959  53.0522 177.0539 0001390  71.4899 288.6241 15.06421726115106","CENTER_NAME":"EARTH","RCS_SIZE":"LARGE","INCLINATION":"53.0522","LAUNCH_DATE":"2020-01-07","DECAY_DATE":null,"RA_OF_ASC_NODE":"177.0539","PERIAPSIS":"546.184","OBJECT_TYPE":"PAYLOAD","MEAN_MOTION_DDOT":"0.0000000000000","NORAD_CAT_ID":"44959","ARG_OF_PERICENTER":"71.4899","FILE":"3291273","SITE":"AFETR","MEAN_ANOMALY":"288.6241"},{"GP_ID":"195257817","CLASSIFICATION_TYPE":"U","BSTAR":"0.00006700700000","PERIOD":"95.592","REF_FRAME":"TEME","OBJECT_NAME":"STARLINK-1080","EPHEMERIS_TYPE":"0","REV_AT_EPOCH":"11510","OBJECT_ID":"2020-001AZ","ECCENTRICITY":"0.00018430","MEAN_ELEMENT_THEORY":"SGP4","TIME_SYSTEM":"UTC","SEMIMAJOR_AXIS":"6925.353","MEAN_MOTION_DOT":"0.00000717","COUNTRY_CODE":"US","ELEMENT_SET_NO":"999","APOAPSIS":"548.495","EPOCH":"2022-02-03T19:52:21.734112","MEAN_MOTION":"15.06398487","TLE_LINE1":"1 44961U 20001AZ  22034.82802933  .00000717  00000-0  67007-4 0  9992","CENTER_NAME":"EARTH","RCS_SIZE":"LARGE","TLE_LINE2":"2 44961  53.0543 177.3185 0001843  87.9041 272.2159 15.06398487115100","LAUNCH_DATE":"2020-01-07","DECAY_DATE":null,"INCLINATION":"53.0543","MEAN_MOTION_DDOT":"0.0000000000000","OBJECT_TYPE":"PAYLOAD","ARG_OF_PERICENTER":"87.9041","NORAD_CAT_ID":"44961","PERIAPSIS":"545.942","RA_OF_ASC_NODE":"177.3185","MEAN_ANOMALY":"272.2159","SITE":"AFETR","FILE":"3291273"},{"OBJECT_TYPE":"PAYLOAD","NORAD_CAT_ID":"44963","MEAN_MOTION_DDOT":"0.0000000000000","ARG_OF_PERICENTER":"80.4859","PERIAPSIS":"535.558","RA_OF_ASC_NODE":"171.5988","MEAN_ANOMALY":"279.6312","FILE":"3291273","SITE":"AFETR","CENTER_NAME":"EARTH","RCS_SIZE":"LARGE","TLE_LINE2":"2 44963  52.9983 171.5988 0001601  80.4859 279.6312 15.09848333115882","LAUNCH_DATE":"2020-01-07","DECAY_DATE":null,"INCLINATION":"52.9983","ECCENTRICITY":"0.00016010","OBJECT_ID":"2020-001BB","REV_AT_EPOCH":"11588","SEMIMAJOR_AXIS":"6914.800","TIME_SYSTEM":"UTC","MEAN_ELEMENT_THEORY":"SGP4","ELEMENT_SET_NO":"999","COUNTRY_CODE":"US","MEAN_MOTION_DOT":"0.00012379","EPOCH":"2022-02-03T18:14:01.096224","MEAN_MOTION":"15.09848333","TLE_LINE1":"1 44963U 20001BB  22034.75973491  .00012379  00000-0  77294-3 0  9999","APOAPSIS":"537.772","CLASSIFICATION_TYPE":"U","GP_ID":"195258566","REF_FRAME":"TEME","BSTAR":"0.00077294000000","PERIOD":"95.374","OBJECT_NAME":"STARLINK-1085","EPHEMERIS_TYPE":"0"}];
